{
  "type": "FeatureCollection",
  "features": [
    {
      "type": "Feature",
      "properties": {
        "norad_id": 46277,
        "name": "NEMO-HD",
        "group": "resource",
        "lat": 65.90528071979381,
        "lon": -106.17743024310553,
        "alt_km": 437.69304606143487,
        "timestamp": "2025-12-24T09:46:30.653235+00:00",
        "meta_object_name": "NEMO-HD",
        "meta_object_id": "2020-061F",
        "meta_epoch": "2025-12-24T04:36:35.240256",
        "meta_mean_motion": 15.40555304,
        "meta_eccentricity": 0.0001127,
        "meta_inclination": 97.219,
        "meta_ra_of_asc_node": 57.1446,
        "meta_arg_of_pericenter": 52.5755,
        "meta_mean_anomaly": 307.5594,
        "meta_ephemeris_type": 0,
        "meta_classification_type": "U",
        "meta_norad_cat_id": 46277,
        "meta_element_set_no": 999,
        "meta_rev_at_epoch": 29500,
        "meta_bstar": 0.00028275,
        "meta_mean_motion_dot": 0.0001141,
        "meta_mean_motion_ddot": 0,
        "tle_line1": "1 46277U 20061F   25358.19207454  .00011410  00000+0  28275-3 0  9993",
        "tle_line2": "2 46277  97.2190  57.1446 0001127  52.5755 307.5594 15.40555304295004"
      },
      "geometry": {
        "type": "Point",
        "coordinates": [
          -106.17743024310553,
          65.90528071979381
        ]
      }
    },
    {
      "type": "Feature",
      "properties": {
        "norad_id": 46984,
        "name": "SENTINEL-6A",
        "group": "resource",
        "lat": -62.94914882294868,
        "lon": 18.620382994711758,
        "alt_km": 1338.1963159222614,
        "timestamp": "2025-12-24T09:46:30.653246+00:00",
        "meta_object_name": "SENTINEL-6A",
        "meta_object_id": "2020-086A",
        "meta_epoch": "2025-12-23T19:19:13.530144",
        "meta_mean_motion": 12.80930767,
        "meta_eccentricity": 0.00077496,
        "meta_inclination": 66.0398,
        "meta_ra_of_asc_node": 139.3251,
        "meta_arg_of_pericenter": 269.3952,
        "meta_mean_anomaly": 90.6175,
        "meta_ephemeris_type": 0,
        "meta_classification_type": "U",
        "meta_norad_cat_id": 46984,
        "meta_element_set_no": 999,
        "meta_rev_at_epoch": 23786,
        "meta_bstar": -6.596775e-06,
        "meta_mean_motion_dot": -6.3e-07,
        "meta_mean_motion_ddot": 0,
        "tle_line1": "1 46984U 20086A   25357.80501771 -.00000063  00000+0 -65968-5 0  9997",
        "tle_line2": "2 46984  66.0398 139.3251 0007749 269.3952  90.6175 12.80930767237869"
      },
      "geometry": {
        "type": "Point",
        "coordinates": [
          18.620382994711758,
          -62.94914882294868
        ]
      }
    },
    {
      "type": "Feature",
      "properties": {
        "norad_id": 48079,
        "name": "GAOFEN-12 02",
        "group": "resource",
        "lat": -48.28564562673215,
        "lon": 163.29705007902038,
        "alt_km": 636.201930268252,
        "timestamp": "2025-12-24T09:46:30.653256+00:00",
        "meta_object_name": "GAOFEN-12 02",
        "meta_object_id": "2021-026A",
        "meta_epoch": "2025-12-24T05:30:04.885344",
        "meta_mean_motion": 14.8068814,
        "meta_eccentricity": 0.0003564,
        "meta_inclination": 97.9857,
        "meta_ra_of_asc_node": 352.1805,
        "meta_arg_of_pericenter": 78.0345,
        "meta_mean_anomaly": 282.1267,
        "meta_ephemeris_type": 0,
        "meta_classification_type": "U",
        "meta_norad_cat_id": 48079,
        "meta_element_set_no": 999,
        "meta_rev_at_epoch": 25587,
        "meta_bstar": 7.0085e-05,
        "meta_mean_motion_dot": 4.86e-06,
        "meta_mean_motion_ddot": 0,
        "tle_line1": "1 48079U 21026A   25358.22922321  .00000486  00000+0  70085-4 0  9996",
        "tle_line2": "2 48079  97.9857 352.1805 0003564  78.0345 282.1267 14.80688140255879"
      },
      "geometry": {
        "type": "Point",
        "coordinates": [
          163.29705007902038,
          -48.28564562673215
        ]
      }
    },
    {
      "type": "Feature",
      "properties": {
        "norad_id": 48268,
        "name": "PLEIADES NEO 3",
        "group": "resource",
        "lat": -22.65057933153721,
        "lon": 74.00046329513384,
        "alt_km": 629.8388734756663,
        "timestamp": "2025-12-24T09:46:30.653267+00:00",
        "meta_object_name": "PLEIADES NEO 3",
        "meta_object_id": "2021-034A",
        "meta_epoch": "2025-12-24T05:00:57.130848",
        "meta_mean_motion": 14.81669996,
        "meta_eccentricity": 0.0001307,
        "meta_inclination": 97.8947,
        "meta_ra_of_asc_node": 70.4855,
        "meta_arg_of_pericenter": 89.7191,
        "meta_mean_anomaly": 270.4171,
        "meta_ephemeris_type": 0,
        "meta_classification_type": "U",
        "meta_norad_cat_id": 48268,
        "meta_element_set_no": 999,
        "meta_rev_at_epoch": 25174,
        "meta_bstar": -6.9575e-05,
        "meta_mean_motion_dot": -5.99e-06,
        "meta_mean_motion_ddot": 0,
        "tle_line1": "1 48268U 21034A   25358.20899457 -.00000599  00000+0 -69575-4 0  9995",
        "tle_line2": "2 48268  97.8947  70.4855 0001307  89.7191 270.4171 14.81669996251749"
      },
      "geometry": {
        "type": "Point",
        "coordinates": [
          74.00046329513384,
          -22.65057933153721
        ]
      }
    },
    {
      "type": "Feature",
      "properties": {
        "norad_id": 49070,
        "name": "PLEIADES NEO 4",
        "group": "resource",
        "lat": 22.334332960814788,
        "lon": -106.05483697128783,
        "alt_km": 623.3836753067108,
        "timestamp": "2025-12-24T09:46:30.653277+00:00",
        "meta_object_name": "PLEIADES NEO 4",
        "meta_object_id": "2021-073E",
        "meta_epoch": "2025-12-24T04:12:18.652032",
        "meta_mean_motion": 14.81671984,
        "meta_eccentricity": 0.0001339,
        "meta_inclination": 97.8947,
        "meta_ra_of_asc_node": 70.4484,
        "meta_arg_of_pericenter": 93.009,
        "meta_mean_anomaly": 267.1276,
        "meta_ephemeris_type": 0,
        "meta_classification_type": "U",
        "meta_norad_cat_id": 49070,
        "meta_element_set_no": 999,
        "meta_rev_at_epoch": 23545,
        "meta_bstar": 1.4221e-05,
        "meta_mean_motion_dot": 6e-07,
        "meta_mean_motion_ddot": 0,
        "tle_line1": "1 49070U 21073E   25358.17521588  .00000060  00000+0  14221-4 0  9992",
        "tle_line2": "2 49070  97.8947  70.4484 0001339  93.0090 267.1276 14.81671984235459"
      },
      "geometry": {
        "type": "Point",
        "coordinates": [
          -106.05483697128783,
          22.334332960814788
        ]
      }
    },
    {
      "type": "Feature",
      "properties": {
        "norad_id": 49260,
        "name": "LANDSAT 9",
        "group": "resource",
        "lat": -43.318420526916164,
        "lon": -121.47411983500561,
        "alt_km": 709.6945238778371,
        "timestamp": "2025-12-24T09:46:30.653305+00:00",
        "meta_object_name": "LANDSAT 9",
        "meta_object_id": "2021-088A",
        "meta_epoch": "2025-12-24T03:48:25.627680",
        "meta_mean_motion": 14.57109202,
        "meta_eccentricity": 0.0001105,
        "meta_inclination": 98.2079,
        "meta_ra_of_asc_node": 66.1034,
        "meta_arg_of_pericenter": 93.1257,
        "meta_mean_anomaly": 267.0068,
        "meta_ephemeris_type": 0,
        "meta_classification_type": "U",
        "meta_norad_cat_id": 49260,
        "meta_element_set_no": 999,
        "meta_rev_at_epoch": 22551,
        "meta_bstar": 0.00010495,
        "meta_mean_motion_dot": 4.28e-06,
        "meta_mean_motion_ddot": 0,
        "tle_line1": "1 49260U 21088A   25358.15862995  .00000428  00000+0  10495-3 0  9993",
        "tle_line2": "2 49260  98.2079  66.1034 0001105  93.1257 267.0068 14.57109202225517"
      },
      "geometry": {
        "type": "Point",
        "coordinates": [
          -121.47411983500561,
          -43.318420526916164
        ]
      }
    },
    {
      "type": "Feature",
      "properties": {
        "norad_id": 51444,
        "name": "CSG-2",
        "group": "resource",
        "lat": -29.899896578905913,
        "lon": -5.013902706467836,
        "alt_km": 629.177239052201,
        "timestamp": "2025-12-24T09:46:30.653319+00:00",
        "meta_object_name": "CSG-2",
        "meta_object_id": "2022-008A",
        "meta_epoch": "2025-12-24T03:58:10.133184",
        "meta_mean_motion": 14.82153915,
        "meta_eccentricity": 0.000149,
        "meta_inclination": 97.8803,
        "meta_ra_of_asc_node": 179.316,
        "meta_arg_of_pericenter": 81.0104,
        "meta_mean_anomaly": 279.1278,
        "meta_ephemeris_type": 0,
        "meta_classification_type": "U",
        "meta_norad_cat_id": 51444,
        "meta_element_set_no": 999,
        "meta_rev_at_epoch": 21066,
        "meta_bstar": 1.6961e-05,
        "meta_mean_motion_dot": 8.3e-07,
        "meta_mean_motion_ddot": 0,
        "tle_line1": "1 51444U 22008A   25358.16539506  .00000083  00000+0  16961-4 0  9995",
        "tle_line2": "2 51444  97.8803 179.3160 0001490  81.0104 279.1278 14.82153915210660"
      },
      "geometry": {
        "type": "Point",
        "coordinates": [
          -5.013902706467836,
          -29.899896578905913
        ]
      }
    }
  ]
}